{
    "links": {
        "self": "http://www.neowsapp.com/rest/v1/neo/54073369?api_key=iIulBulltgU6a56xZRHN4H3l9WmuAYTsLGpBGhQ2"
    },
    "id": "54073369",
    "neo_reference_id": "54073369",
    "name": "(2020 UW)",
    "designation": "2020 UW",
    "nasa_jpl_url": "http://ssd.jpl.nasa.gov/sbdb.cgi?sstr=54073369",
    "absolute_magnitude_h": 27.228,
    "estimated_diameter": {
        "kilometers": {
            "estimated_diameter_min": 0.0095269739,
            "estimated_diameter_max": 0.0213029613
        },
        "meters": {
            "estimated_diameter_min": 9.5269739258,
            "estimated_diameter_max": 21.302961318
        },
        "miles": {
            "estimated_diameter_min": 0.0059197853,
            "estimated_diameter_max": 0.0132370424
        },
        "feet": {
            "estimated_diameter_min": 31.2564771347,
            "estimated_diameter_max": 69.8916076104
        }
    },
    "is_potentially_hazardous_asteroid": false,
    "close_approach_data": [
        {
            "close_approach_date": "2020-10-17",
            "close_approach_date_full": "2020-Oct-17 06:00",
            "epoch_date_close_approach": 1602914400000,
            "relative_velocity": {
                "kilometers_per_second": "8.7883396148",
                "kilometers_per_hour": "31638.0226133212",
                "miles_per_hour": "19658.6368843717"
            },
            "miss_distance": {
                "astronomical": "0.0265212929",
                "lunar": "10.3167829381",
                "kilometers": "3967528.927486123",
                "miles": "2465308.1576815774"
            },
            "orbiting_body": "Earth"
        },
        {
            "close_approach_date": "2077-11-16",
            "close_approach_date_full": "2077-Nov-16 08:59",
            "epoch_date_close_approach": 3404278740000,
            "relative_velocity": {
                "kilometers_per_second": "18.6388114975",
                "kilometers_per_hour": "67099.7213909975",
                "miles_per_hour": "41693.1574387562"
            },
            "miss_distance": {
                "astronomical": "0.4769789196",
                "lunar": "185.5447997244",
                "kilometers": "71355030.407061252",
                "miles": "44337959.9164271976"
            },
            "orbiting_body": "Earth"
        },
        {
            "close_approach_date": "2085-10-20",
            "close_approach_date_full": "2085-Oct-20 00:40",
            "epoch_date_close_approach": 3654376800000,
            "relative_velocity": {
                "kilometers_per_second": "9.0346204884",
                "kilometers_per_hour": "32524.6337581551",
                "miles_per_hour": "20209.5425704492"
            },
            "miss_distance": {
                "astronomical": "0.0389030107",
                "lunar": "15.1332711623",
                "kilometers": "5819807.537307209",
                "miles": "3616260.7154451242"
            },
            "orbiting_body": "Earth"
        },
        {
            "close_approach_date": "2166-06-29",
            "close_approach_date_full": "2166-Jun-29 09:38",
            "epoch_date_close_approach": 6200703480000,
            "relative_velocity": {
                "kilometers_per_second": "5.5359097206",
                "kilometers_per_hour": "19929.2749940189",
                "miles_per_hour": "12383.2764539225"
            },
            "miss_distance": {
                "astronomical": "0.4560557919",
                "lunar": "177.4057030491",
                "kilometers": "68224975.069403253",
                "miles": "42393033.7170327714"
            },
            "orbiting_body": "Earth"
        },
        {
            "close_approach_date": "2166-11-09",
            "close_approach_date_full": "2166-Nov-09 15:17",
            "epoch_date_close_approach": 6212215020000,
            "relative_velocity": {
                "kilometers_per_second": "14.5072801259",
                "kilometers_per_hour": "52226.2084530949",
                "miles_per_hour": "32451.3349135356"
            },
            "miss_distance": {
                "astronomical": "0.3187375206",
                "lunar": "123.9888955134",
                "kilometers": "47682454.170841122",
                "miles": "29628503.1298146036"
            },
            "orbiting_body": "Earth"
        }
    ],
    "orbital_data": {
        "orbit_id": "3",
        "orbit_determination_date": "2020-10-20 07:20:49",
        "first_observation_date": "2020-10-17",
        "last_observation_date": "2020-10-20",
        "data_arc_in_days": 3,
        "observations_used": 32,
        "orbit_uncertainty": "7",
        "minimum_orbit_intersection": ".0272132",
        "jupiter_tisserand_invariant": "4.786",
        "epoch_osculation": "2459000.5",
        "eccentricity": ".2516301065372984",
        "semi_major_axis": "1.358719981187712",
        "inclination": "14.6982917384157",
        "ascending_node_longitude": "25.53864511255052",
        "orbital_period": "578.4866887394616",
        "perihelion_distance": "1.016825127567092",
        "perihelion_argument": "345.2914153498236",
        "aphelion_distance": "1.700614834808333",
        "perihelion_time": "2459127.395462105502",
        "mean_anomaly": "281.0312575082347",
        "mean_motion": ".6223133686696403",
        "equinox": "J2000",
        "orbit_class": {
            "orbit_class_type": "APO",
            "orbit_class_description": "Near-Earth asteroid orbits which cross the Earth’s orbit similar to that of 1862 Apollo",
            "orbit_class_range": "a (semi-major axis) > 1.0 AU; q (perihelion) < 1.017 AU"
        }
    },
    "is_sentry_object": false
}